{
    "links": {
        "self": "http://www.neowsapp.com/rest/v1/neo/3462016?api_key=iIulBulltgU6a56xZRHN4H3l9WmuAYTsLGpBGhQ2"
    },
    "id": "3462016",
    "neo_reference_id": "3462016",
    "name": "(2009 KL8)",
    "designation": "2009 KL8",
    "nasa_jpl_url": "http://ssd.jpl.nasa.gov/sbdb.cgi?sstr=3462016",
    "absolute_magnitude_h": 24.3,
    "estimated_diameter": {
        "kilometers": {
            "estimated_diameter_min": 0.0366906138,
            "estimated_diameter_max": 0.0820427065
        },
        "meters": {
            "estimated_diameter_min": 36.6906137531,
            "estimated_diameter_max": 82.0427064882
        },
        "miles": {
            "estimated_diameter_min": 0.0227984834,
            "estimated_diameter_max": 0.0509789586
        },
        "feet": {
            "estimated_diameter_min": 120.3760332259,
            "estimated_diameter_max": 269.1689931548
        }
    },
    "is_potentially_hazardous_asteroid": false,
    "close_approach_data": [
        {
            "close_approach_date": "2009-06-01",
            "close_approach_date_full": "2009-Jun-01 15:24",
            "epoch_date_close_approach": 1243869840000,
            "relative_velocity": {
                "kilometers_per_second": "11.32105201",
                "kilometers_per_hour": "40755.7872359615",
                "miles_per_hour": "25324.0612411451"
            },
            "miss_distance": {
                "astronomical": "0.0131215962",
                "lunar": "5.1043009218",
                "kilometers": "1962962.842520094",
                "miles": "1219728.5507775372"
            },
            "orbiting_body": "Earth"
        }
    ],
    "orbital_data": {
        "orbit_id": "9",
        "orbit_determination_date": "2017-04-06 09:00:29",
        "first_observation_date": "2009-05-30",
        "last_observation_date": "2009-06-02",
        "data_arc_in_days": 3,
        "observations_used": 39,
        "orbit_uncertainty": "8",
        "minimum_orbit_intersection": ".0124695",
        "jupiter_tisserand_invariant": "4.034",
        "epoch_osculation": "2454982.5",
        "eccentricity": ".4724907699586119",
        "semi_major_axis": "1.716596469626586",
        "inclination": "7.975443001384349",
        "ascending_node_longitude": "76.1403491950778",
        "orbital_period": "821.4871026342155",
        "perihelion_distance": ".9055204819844858",
        "perihelion_argument": "222.4702888376474",
        "aphelion_distance": "2.527672457268687",
        "perihelion_time": "2455020.876001005552",
        "mean_anomaly": "343.1824987663254",
        "mean_motion": ".4382296433451099",
        "equinox": "J2000",
        "orbit_class": {
            "orbit_class_type": "APO",
            "orbit_class_description": "Near-Earth asteroid orbits which cross the Earth’s orbit similar to that of 1862 Apollo",
            "orbit_class_range": "a (semi-major axis) > 1.0 AU; q (perihelion) < 1.017 AU"
        }
    },
    "is_sentry_object": false
}